id,category,satellite_name,tle_line1,tle_line2,inclination,eccentricity,period,perigee,apogee,epoch,raan,arg_perigee,mean_anomaly,mean_motion,semi_major_axis,velocity,orbit_type,satellite_age,bstar,rev_num,norad_number,ephemeris_type,intl_designator
128,active,HELLAS-SAT 2,1 27811U 03020A   25016.96332044 -.00000083  00000+0  00000+0 0  9999,2 27811   6.0621  74.0274 0009546 208.3860 170.9677  1.00272058 37676,6.062100000000001,0.0009546,1436.0929941220513,35746.405049481065,35826.90580962718,2025-01-16 23:07:10.886016,74.0274,208.386,1.00272058,1.00272058,42164.65542955412,3.0746423869208575,GEO,2,0,3767,27811,0,03020A
139,active,MOZHAYETS 4 (RS-22),1 27939U 03042A   25017.58699257  .00002480  00000+0  40665-3 0  9992,2 27939  98.3100 183.7725 0012640 101.5970 332.5526 14.71596043139663,98.31,0.001264,97.85294047573082,647.2233846798626,665.0056261495511,2025-01-17 14:05:16.158048,183.7725,101.597,332.5526,14.71596043,7034.114505414707,7.527732379931572,LEO,2,0.00040665000000000005,13966,27939,0,03042A
144,active,CHUANGXIN 1 (CX-1),1 28058U 03049B   25017.61238110  .00000578  00000+0  16733-3 0  9998,2 28058  98.5653 266.5055 0011763 310.2955  49.7209 14.48127750121647,98.5653,0.0011763,99.43874081551161,723.5436823647142,740.2704497282957,2025-01-17 14:41:49.72704,266.5055,310.2955,49.7209,14.4812775,7109.907066046505,7.487501558987821,LEO,2,0.00016733,12164,28058,0,03049B
149,active,ABS-4 (MOBISAT-1),1 28184U 04007A   25017.20396619  .00000042  00000+0  00000+0 0  9999,2 28184   4.7296  78.2955 0006789 219.4935 313.4817  1.00269320 47160,4.7296,0.0006789,1436.1322087354338,35758.79689865187,35816.04911000715,2025-01-17 04:53:42.678816,78.2955,219.4935,1.0026932,1.0026932,42165.42300432951,3.0746144015656554,GEO,2,0,4716,28184,0,04007A
161,active,AURA,1 28376U 04026A   25017.58348564  .00002083  00000+0  44574-3 0  9995,2 28376  98.2780 327.3949 0001557  89.3531 270.7847 14.59803060 90949,98.278,0.0001557,98.64344304087156,692.8458593372661,695.0480636210705,2025-01-17 14:00:13.159296,327.3949,89.3531,14.5980306,14.5980306,7071.946961479168,7.507570003598463,LEO,2,0.00044574,9094,28376,0,04026A
166,active,COSMOS 2408,1 28419U 04037A   25017.53276081  .00000047  00000+0  25939-3 0  9996,2 28419  82.4852 288.8853 0015698 322.2867  37.7112 12.45663730923705,82.4852,0.0015698,115.6010217942205,1470.4820736209813,1495.1619103470139,2025-01-17 12:47:10.533984,288.8853,322.2867,37.7112,12.4566373,7860.821991983998,7.120900328243952,LEO,2,0.00025939,92370,28419,0,04037A
181,active,DIRECTV 8,1 28659U 05019A   25017.27731341  .00000006  00000+0  00000+0 0  9992,2 28659   0.0207  63.0848 0003067 238.8771 155.7753  1.00269682 71906,0.0207,0.0003067,1436.1270239193539,35774.38941462601,35800.25362284561,2025-01-17 06:39:19.878624,63.08480000000001,238.87710000000004,1.00269682,1.00269682,42165.32151873581,3.0746181016308864,GEO,2,0,7190,28659,0,05019A
32,active,SCD 1,1 22490U 93009B   25017.37827049  .00000709  00000+0  14427-3 0  9999,2 22490  24.9675 151.4418 0042474  80.2342 305.5300 14.45683075686386,24.9675,0.0042474,99.60689344032059,709.6874717321498,770.1527796157234,2025-01-17 09:04:42.570336,151.4418,80.2342,305.53,14.45683075,7117.920125673937,7.483285812627729,LEO,2,0.00014427,68638,22490,0,93009B
207,active,GALAXY 16 (G-16),1 29236U 06023A   25016.22848715 -.00000126  00000+0  00000+0 0  9992,2 29236   0.0108 241.4368 0003099  66.4398 151.2872  1.00270443 68087,0.0108,0.0003099,1436.1161244695008,35774.04120967868,35800.1751437266,2025-01-16 05:29:01.28976,241.4368,66.43980000000002,1.00270443,1.00270443,42165.10817670264,3.0746258799157724,GEO,3,0,6808,29236,0,06023A
221,active,BADR-4,1 29526U 06051A   25016.32752698  .00000146  00000+0  00000+0 0  9991,2 29526   0.6678  85.9028 0008827 225.2854 308.9787  1.00275423 46082,0.6678,0.0008827,1436.044802324095,35748.494219865606,35822.93003725736,2025-01-16 07:51:38.331072,85.9028,225.2854,1.00275423,1.00275423,42163.712128561485,3.0746767802041766,MEO,3,0,4608,29526,0,06051A
202,active,ASTRA 1KR,1 29055U 06012A   25014.29979882  .00000119  00000+0  00000+0 0  9995,2 29055   0.0305 310.8699 0004481 309.9747 340.3019  1.00275097 68547,0.0305,0.0004481,1436.0494709867996,35766.9099125631,35804.69711327137,2025-01-14 07:11:42.618048,310.8699,309.9747,1.00275097,1.00275097,42163.803512917235,3.0746734482288147,MEO,5,0,6854,29055,0,06012A
232,active,SAUDICOMSAT 7,1 31119U 07012C   25017.31620748  .00001839  00000+0  34553-3 0  9994,2 31119  98.3081 338.5267 0057326  14.6448 345.6399 14.64875974946878,98.3081,0.0057326,98.30183753153699,637.1636058586628,718.0575925003759,2025-01-17 07:35:20.326272,338.5267,14.6448,345.6399,14.64875974,7055.610599179519,7.516256386649086,LEO,2,0.00034553000000000003,94687,31119,0,07012C
237,active,ASTRA 1L,1 31306U 07016A   25016.04029999  .00000120  00000+0  00000+0 0  9994,2 31306   0.0511 341.5015 0005183 317.5432 210.3479  1.00271006 64859,0.051100000000000007,0.0005183,1436.108060988238,35765.09625081943,35808.804438346626,2025-01-16 00:58:01.919136,341.5015,317.5432,1.00271006,1.00271006,42164.95034458303,3.074631634390301,GEO,3,0,6485,31306,0,07016A
242,active,GLOBALSTAR M072,1 31574U 07020D   25017.38733453 -.00000086  00000+0 -27451-4 0  9998,2 31574  52.0096  33.3937 0000765  69.1988  68.3116 11.91772040813482,52.0096,7.65e-05,120.82847655999717,1717.4281324394642,1718.6668277039162,2025-01-17 09:17:45.703392,33.3937,69.1988,68.3116,11.9177204,8096.04748007169,7.016691211274729,LEO,2,-2.7451e-05,81348,31574,0,07020D
251,active,WORLDVIEW-1 (WV-1),1 32060U 07041A   25017.33001732  .00013861  00000+0  56767-3 0  9999,2 32060  97.3878 139.6098 0003345 284.2347  75.8519 15.24405666964346,97.3878,0.0003345,94.46304432720468,490.409432516547,495.0059359573006,2025-01-17 07:55:13.496448,139.6098,284.2347,75.8519,15.24405666,6870.707684236924,7.616722828663328,LEO,2,0.00056767,96434,32060,0,07041A
257,active,GLOBALSTAR M066,1 32265U 07048C   25017.56518868 -.00000078  00000+0  14251-3 0  9990,2 32265  51.9671 103.0200 0001035 130.5871 335.9866 12.42169556796664,51.9671,0.0001035,115.92620291202822,1496.7414242681907,1498.3716644728765,2025-01-17 13:33:52.301952,103.02000000000001,130.5871,335.9866,12.42169556,7875.556544370534,7.11423588490489,LEO,2,0.00014251,79666,32265,0,07048C
267,active,COSMOS 2434 [GLONASS-M],1 32393U 07065A   25016.81706733  .00000057  00000+0  00000+0 0  9997,2 32393  64.3170 209.3436 0005032  73.5445 243.8777  2.13101396132761,64.317,0.0005032,675.7346629488997,19117.236964161013,19142.908288452127,2025-01-16 19:36:34.617312,209.3436,73.5445,243.8777,2.13101396,25508.07262630657,3.953029592035779,MEO,3,0,13276,32393,0,07065A
273,active,DIRECTV 11,1 32729U 08013A   25016.22848693 -.00000124  00000+0  00000+0 0  9997,2 32729   0.0023 279.6197 0001008 322.6117 216.7177  1.00272080 61752,0.0023,0.0001008,1436.0926790388708,35782.399065538986,35790.89945883024,2025-01-16 05:29:01.270752,279.6197,322.6117,1.0027208,1.0027208,42164.64926218461,3.0746426117828607,GEO,3,0,6175,32729,0,08013A
284,active,YUBILEINY (RS-30),1 32953U 08025A   25017.55116829  .00000043  00000+0  23691-3 0  9999,2 32953  82.5060 316.1514 0019886   0.6218 359.4883 12.43157306755622,82.506,0.0019886,115.8340938069506,1477.7312772887399,1509.0373469749502,2025-01-17 13:13:40.940256,316.1514,0.6218,359.4883,12.43157306,7871.384312131845,7.116121087742456,LEO,2,0.00023691,75562,32953,0,08025A
289,active,ZHONGXING-9,1 33051U 08028A   25016.62639594 -.00000245  00000+0  00000+0 0  9998,2 33051   0.0057 100.3810 0004761 217.3861 116.1906  1.00269413 60854,0.0057,0.0004761,1436.1308767210994,35767.321986526105,35807.47187748476,2025-01-16 15:02:00.609216,100.381,217.3861,1.00269413,1.00269413,42165.39693200543,3.07461535213575,GEO,3,0,6085,33051,0,08028A
299,active,HUANJING 1A (HJ-1A),1 33320U 08041A   25017.56675029  .00002997  00000+0  38442-3 0  9999,2 33320  97.6360  20.3009 0020622  34.3088 325.9453 14.81804696881988,97.636,0.0020622,97.17879852096243,609.3313179916076,638.2094197008764,2025-01-17 13:36:07.225056,20.3009,34.3088,325.9453,14.81804696,7001.7703688462425,7.545099235524148,LEO,2,0.00038442,88198,33320,0,08041A
304,active,THEOS,1 33396U 08049A   25017.57016843  .00000143  00000+0  87313-4 0  9997,2 33396  98.6314  84.5559 0000919  90.7208 269.4074 14.20051463844787,98.6314,9.19e-05,101.40477563805024,824.6537686789297,825.9777381144031,2025-01-17 13:41:02.552352,84.5559,90.7208,269.4074,14.20051463,7203.315753396667,7.438796220384704,LEO,2,8.7313e-05,84478,33396,0,08049A
309,active,CHUANGXIN 1-02 (CX-1-02),1 33434U 08056B   25017.57638054  .00000176  00000+0  85316-4 0  9999,2 33434  98.6600  42.6974 0013770 210.1700 149.8690 14.29971681844921,98.66,0.001377,100.70129493704289,782.0894482605818,801.8355249486904,2025-01-17 13:49:59.278656,42.6974,210.17,149.869,14.29971681,7169.962486604636,7.456078060205662,LEO,2,8.531600000000001e-05,84492,33434,0,08056B
320,active,SPIRALE B,1 33752U 09008D   25015.87497812  .00007723  00000+0  14917-2 0  9998,2 33752   2.0918 317.9384 6738714 111.6185 329.8532  2.99426313152500,2.0918,0.6738714,480.9196578525148,253.28080970279188,27657.381419263278,2025-01-15 20:59:58.109568,317.9384,111.6185,329.8532,2.99426313,20333.331114483037,4.427561694158537,MEO,4,0.0014917,15250,33752,0,09008D
325,active,SES-7 (PROTOSTAR 2),1 34941U 09027A   25017.03382538 -.00000342  00000+0  00000+0 0  9994,2 34941   0.0131   2.9243 0002370 261.9759 332.1885  1.00270043 57457,0.0131,0.000237,1436.1218534632524,35777.22715688273,35797.21347131161,2025-01-17 00:48:42.512832,2.9243,261.9759,1.00270043,1.00270043,42165.22031409717,3.074621791466074,GEO,2,0,5745,34941,0,09027A
